1 39634U 14016A   23134.03626346 -.00000026  00000+0  42766-5 0  9998
2 39634  98.1822 141.8602 0001415  78.5881 281.5473 14.59197809485232